{"type": "FeatureCollection", "features": [ {"type": "Feature", "properties": {"norad_id": 37968, "name": "COSMOS 2251 DEB", "group": "cosmos-2251-debris", "lat": -55.11710556319465, "lon": -127.66658066810807, "alt_km": 550.4630873045699, "timestamp": "2025-12-19T20:43:00.483855+00:00", "meta": {"OBJECT_NAME": "COSMOS 2251 DEB", "OBJECT_ID": "1993-036BPT", "EPOCH": "2025-12-13T01:47:19.855104", "MEAN_MOTION": 15.00631757, "ECCENTRICITY": 0.00804168, "INCLINATION": 74.0008, "RA_OF_ASC_NODE": 270.4748, "ARG_OF_PERICENTER": 26.0563, "MEAN_ANOMALY": 334.4636, "EPHEMERIS_TYPE": 0, "CLASSIFICATION_TYPE": "U", "NORAD_CAT_ID": 37968, "ELEMENT_SET_NO": 999, "REV_AT_EPOCH": 60224, "BSTAR": 0.0014144446, "MEAN_MOTION_DOT": 0.0001917, "MEAN_MOTION_DDOT": 0}, "tle": {"line1": "1 37968U 93036BPT 25347.07453536  .00019170  00000+0  14144-2 0  9991", "line2": "2 37968  74.0008 270.4748 0080416  26.0563 334.4636 15.00631757602245"}}, "geometry": {"type": "Point", "coordinates": [-127.66658066810807, -55.11710556319465]}}, {"type": "Feature", "properties": {"norad_id": 37971, "name": "COSMOS 2251 DEB", "group": "cosmos-2251-debris", "lat": -31.956567742994963, "lon": 18.043911932425786, "alt_km": 780.3310831329154, "timestamp": "2025-12-19T20:43:00.483866+00:00", "meta": {"OBJECT_NAME": "COSMOS 2251 DEB", "OBJECT_ID": "1993-036BPW", "EPOCH": "2025-12-15T20:44:52.764576", "MEAN_MOTION": 14.48694104, "ECCENTRICITY": 0.00668395, "INCLINATION": 73.9939, "RA_OF_ASC_NODE": 35.8693, "ARG_OF_PERICENTER": 174.332, "MEAN_ANOMALY": 185.8612, "EPHEMERIS_TYPE": 0, "CLASSIFICATION_TYPE": "U", "NORAD_CAT_ID": 37971, "ELEMENT_SET_NO": 999, "REV_AT_EPOCH": 60723, "BSTAR": 0.0012835139, "MEAN_MOTION_DOT": 4.95e-05, "MEAN_MOTION_DDOT": 0}, "tle": {"line1": "1 37971U 93036BPW 25349.86449959  .00004950  00000+0  12835-2 0  9993", "line2": "2 37971  73.9939  35.8693 0066839 174.3320 185.8612 14.48694104607235"}}, "geometry": {"type": "Point", "coordinates": [18.043911932425786, -31.956567742994963]}}, {"type": "Feature", "properties": {"norad_id": 37975, "name": "COSMOS 2251 DEB", "group": "cosmos-2251-debris", "lat": -18.29812984809105, "lon": 135.53268757740392, "alt_km": 655.1066179437294, "timestamp": "2025-12-19T20:43:00.483876+00:00", "meta": {"OBJECT_NAME": "COSMOS 2251 DEB", "OBJECT_ID": "1993-036BQA", "EPOCH": "2025-12-18T06:24:18.775872", "MEAN_MOTION": 14.76341165, "ECCENTRICITY": 0.00951612, "INCLINATION": 74.0019, "RA_OF_ASC_NODE": 313.2207, "ARG_OF_PERICENTER": 301.4276, "MEAN_ANOMALY": 57.7618, "EPHEMERIS_TYPE": 0, "CLASSIFICATION_TYPE": "U", "NORAD_CAT_ID": 37975, "ELEMENT_SET_NO": 999, "REV_AT_EPOCH": 69827, "BSTAR": 0.0032629501, "MEAN_MOTION_DOT": 0.00024448, "MEAN_MOTION_DDOT": 0}, "tle": {"line1": "1 37975U 93036BQA 25352.26688398  .00024448  00000+0  32630-2 0  9996", "line2": "2 37975  74.0019 313.2207 0095161 301.4276  57.7618 14.76341165698271"}}, "geometry": {"type": "Point", "coordinates": [135.53268757740392, -18.29812984809105]}}, {"type": "Feature", "properties": {"norad_id": 37985, "name": "COSMOS 2251 DEB", "group": "cosmos-2251-debris", "lat": -54.283643150062915, "lon": -130.8148092538418, "alt_km": 775.1992607587899, "timestamp": "2025-12-19T20:43:00.483887+00:00", "meta": {"OBJECT_NAME": "COSMOS 2251 DEB", "OBJECT_ID": "1993-036BQL", "EPOCH": "2025-12-17T23:49:27.671232", "MEAN_MOTION": 14.35484605, "ECCENTRICITY": 0.00210144, "INCLINATION": 74.0252, "RA_OF_ASC_NODE": 256.0955, "ARG_OF_PERICENTER": 17.3481, "MEAN_ANOMALY": 342.8385, "EPHEMERIS_TYPE": 0, "CLASSIFICATION_TYPE": "U", "NORAD_CAT_ID": 37985, "ELEMENT_SET_NO": 999, "REV_AT_EPOCH": 64992, "BSTAR": 4.3734025e-05, "MEAN_MOTION_DOT": 1e-06, "MEAN_MOTION_DDOT": 0}, "tle": {"line1": "1 37985U 93036BQL 25351.99268138  .00000100  00000+0  43734-4 0  9990", "line2": "2 37985  74.0252 256.0955 0021014  17.3481 342.8385 14.35484605649921"}}, "geometry": {"type": "Point", "coordinates": [-130.8148092538418, -54.283643150062915]}}, {"type": "Feature", "properties": {"norad_id": 37988, "name": "COSMOS 2251 DEB", "group": "cosmos-2251-debris", "lat": 71.49242985516679, "lon": 68.87245676648051, "alt_km": 620.4146198115232, "timestamp": "2025-12-19T20:43:00.483897+00:00", "meta": {"OBJECT_NAME": "COSMOS 2251 DEB", "OBJECT_ID": "1993-036BQP", "EPOCH": "2025-12-19T02:22:34.688640", "MEAN_MOTION": 14.6891967, "ECCENTRICITY": 0.00635463, "INCLINATION": 74.062, "RA_OF_ASC_NODE": 11.7337, "ARG_OF_PERICENTER": 47.3595, "MEAN_ANOMALY": 313.2907, "EPHEMERIS_TYPE": 0, "CLASSIFICATION_TYPE": "U", "NORAD_CAT_ID": 37988, "ELEMENT_SET_NO": 999, "REV_AT_EPOCH": 23489, "BSTAR": 0.00064166354, "MEAN_MOTION_DOT": 3.842e-05, "MEAN_MOTION_DDOT": 0}, "tle": {"line1": "1 37988U 93036BQP 25353.09901260  .00003842  00000+0  64166-3 0  9993", "line2": "2 37988  74.0620  11.7337 0063546  47.3595 313.2907 14.68919670234897"}}, "geometry": {"type": "Point", "coordinates": [68.87245676648051, 71.49242985516679]}}, {"type": "Feature", "properties": {"norad_id": 37993, "name": "COSMOS 2251 DEB", "group": "cosmos-2251-debris", "lat": -10.794516658881625, "lon": 150.18038233760666, "alt_km": 701.8560354850415, "timestamp": "2025-12-19T20:43:00.483907+00:00", "meta": {"OBJECT_NAME": "COSMOS 2251 DEB", "OBJECT_ID": "1993-036BQU", "EPOCH": "2025-12-17T04:37:52.855104", "MEAN_MOTION": 14.59966404, "ECCENTRICITY": 0.00218755, "INCLINATION": 74.021, "RA_OF_ASC_NODE": 158.4097, "ARG_OF_PERICENTER": 246.7183, "MEAN_ANOMALY": 113.168, "EPHEMERIS_TYPE": 0, "CLASSIFICATION_TYPE": "U", "NORAD_CAT_ID": 37993, "ELEMENT_SET_NO": 999, "REV_AT_EPOCH": 65382, "BSTAR": 0.0010496489, "MEAN_MOTION_DOT": 5.024e-05, "MEAN_MOTION_DDOT": 0}, "tle": {"line1": "1 37993U 93036BQU 25351.19297286  .00005024  00000+0  10496-2 0  9994", "line2": "2 37993  74.0210 158.4097 0021875 246.7183 113.1680 14.59966404653827"}}, "geometry": {"type": "Point", "coordinates": [150.18038233760666, -10.794516658881625]}}, {"type": "Feature", "properties": {"norad_id": 37994, "name": "COSMOS 2251 DEB", "group": "cosmos-2251-debris", "lat": -73.24140567432742, "lon": -169.37907308728873, "alt_km": 759.7515067301574, "timestamp": "2025-12-19T20:43:00.483917+00:00", "meta": {"OBJECT_NAME": "COSMOS 2251 DEB", "OBJECT_ID": "1993-036BQV", "EPOCH": "2025-12-19T04:25:52.830336", "MEAN_MOTION": 14.39637226, "ECCENTRICITY": 0.00231874, "INCLINATION": 74.036, "RA_OF_ASC_NODE": 263.7875, "ARG_OF_PERICENTER": 342.051, "MEAN_ANOMALY": 17.9823, "EPHEMERIS_TYPE": 0, "CLASSIFICATION_TYPE": "U", "NORAD_CAT_ID": 37994, "ELEMENT_SET_NO": 999, "REV_AT_EPOCH": 77157, "BSTAR": 0.00024890631, "MEAN_MOTION_DOT": 7.54e-06, "MEAN_MOTION_DDOT": 0}, "tle": {"line1": "1 37994U 93036BQV 25353.18463924  .00000754  00000+0  24891-3 0  9990", "line2": "2 37994  74.0360 263.7875 0023187 342.0510  17.9823 14.39637226771578"}}, "geometry": {"type": "Point", "coordinates": [-169.37907308728873, -73.24140567432742]}}, {"type": "Feature", "properties": {"norad_id": 37998, "name": "COSMOS 2251 DEB", "group": "cosmos-2251-debris", "lat": -30.43753860817832, "lon": -147.84516237130615, "alt_km": 734.2269161818203, "timestamp": "2025-12-19T20:43:00.483927+00:00", "meta": {"OBJECT_NAME": "COSMOS 2251 DEB", "OBJECT_ID": "1993-036BQZ", "EPOCH": "2025-12-07T01:34:33.386016", "MEAN_MOTION": 14.45444842, "ECCENTRICITY": 0.00199405, "INCLINATION": 74.0387, "RA_OF_ASC_NODE": 245.6796, "ARG_OF_PERICENTER": 320.6712, "MEAN_ANOMALY": 39.2997, "EPHEMERIS_TYPE": 0, "CLASSIFICATION_TYPE": "U", "NORAD_CAT_ID": 37998, "ELEMENT_SET_NO": 999, "REV_AT_EPOCH": 64205, "BSTAR": 0.00093558552, "MEAN_MOTION_DOT": 3.277e-05, "MEAN_MOTION_DDOT": 0}, "tle": {"line1": "1 37998U 93036BQZ 25341.06566419  .00003277  00000+0  93559-3 0  9991", "line2": "2 37998  74.0387 245.6796 0019940 320.6712  39.2997 14.45444842642056"}}, "geometry": {"type": "Point", "coordinates": [-147.84516237130615, -30.43753860817832]}}, {"type": "Feature", "properties": {"norad_id": 38001, "name": "COSMOS 2251 DEB", "group": "cosmos-2251-debris", "lat": 62.292123290909295, "lon": 151.39873479786203, "alt_km": 668.8399894291742, "timestamp": "2025-12-19T20:43:00.483937+00:00", "meta": {"OBJECT_NAME": "COSMOS 2251 DEB", "OBJECT_ID": "1993-036BRC", "EPOCH": "2025-12-18T08:50:38.200416", "MEAN_MOTION": 14.7913974, "ECCENTRICITY": 0.00654266, "INCLINATION": 74.002, "RA_OF_ASC_NODE": 121.2316, "ARG_OF_PERICENTER": 269.6839, "MEAN_ANOMALY": 121.3224, "EPHEMERIS_TYPE": 0, "CLASSIFICATION_TYPE": "U", "NORAD_CAT_ID": 38001, "ELEMENT_SET_NO": 999, "REV_AT_EPOCH": 74791, "BSTAR": 0.00069232244, "MEAN_MOTION_DOT": 5.288e-05, "MEAN_MOTION_DDOT": 0}, "tle": {"line1": "1 38001U 93036BRC 25352.36849769  .00005288  00000+0  69232-3 0  9999", "line2": "2 38001  74.0020 121.2316 0065426 269.6839 121.3224 14.79139740747917"}}, "geometry": {"type": "Point", "coordinates": [151.39873479786203, 62.292123290909295]}}, {"type": "Feature", "properties": {"norad_id": 38006, "name": "COSMOS 2251 DEB", "group": "cosmos-2251-debris", "lat": 36.33974507800999, "lon": -167.65098797873458, "alt_km": 788.6555291575723, "timestamp": "2025-12-19T20:43:00.483947+00:00", "meta": {"OBJECT_NAME": "COSMOS 2251 DEB", "OBJECT_ID": "1993-036BRH", "EPOCH": "2025-12-10T03:36:37.956384", "MEAN_MOTION": 14.45867865, "ECCENTRICITY": 0.00758537, "INCLINATION": 73.8744, "RA_OF_ASC_NODE": 42.933, "ARG_OF_PERICENTER": 348.3853, "MEAN_ANOMALY": 11.555, "EPHEMERIS_TYPE": 0, "CLASSIFICATION_TYPE": "U", "NORAD_CAT_ID": 38006, "ELEMENT_SET_NO": 999, "REV_AT_EPOCH": 62922, "BSTAR": 0.0047338847, "MEAN_MOTION_DOT": 0.00017443, "MEAN_MOTION_DDOT": 0}, "tle": {"line1": "1 38006U 93036BRH 25344.15043931  .00017443  00000+0  47339-2 0  9998", "line2": "2 38006  73.8744  42.9330 0075853 348.3853  11.5550 14.45867865629227"}}, "geometry": {"type": "Point", "coordinates": [-167.65098797873458, 36.33974507800999]}}]}